{
  "type": "FeatureCollection",
  "features": [
    {
      "type": "Feature",
      "properties": {
        "norad_id": 37238,
        "name": "INTELSAT 17 (IS-17)",
        "group": "intelsat",
        "lat": 0.03505716682148109,
        "lon": 45.13904426161254,
        "alt_km": 35794.63332045214,
        "timestamp": "2025-12-02T17:49:11.693485+00:00",
        "meta_object_name": "INTELSAT 17 (IS-17)",
        "meta_object_id": "2010-065B",
        "meta_epoch": "2025-12-02T08:57:45.241056",
        "meta_mean_motion": 1.00272282,
        "meta_eccentricity": 0.0002675,
        "meta_inclination": 0.0187,
        "meta_ra_of_asc_node": 277.9001,
        "meta_arg_of_pericenter": 347.1089,
        "meta_mean_anomaly": 6.9134,
        "meta_ephemeris_type": 0,
        "meta_classification_type": "U",
        "meta_norad_cat_id": 37238,
        "meta_element_set_no": 999,
        "meta_rev_at_epoch": 5127,
        "meta_bstar": 0,
        "meta_mean_motion_dot": 1.9e-07,
        "meta_mean_motion_ddot": 0,
        "tle_line1": "1 37238U 10065B   25336.37344029  .00000019  00000+0  00000+0 0  9994",
        "tle_line2": "2 37238   0.0187 277.9001 0002675 347.1089   6.9134  1.00272282 51271"
      },
      "geometry": {
        "type": "Point",
        "coordinates": [
          45.13904426161254,
          0.03505716682148109
        ]
      }
    },
    {
      "type": "Feature",
      "properties": {
        "norad_id": 37392,
        "name": "INTELSAT 28 (IS-28)",
        "group": "intelsat",
        "lat": -0.8755668540587387,
        "lon": -52.55976066147151,
        "alt_km": 35775.67206766188,
        "timestamp": "2025-12-02T17:49:11.693496+00:00",
        "meta_object_name": "INTELSAT 28 (IS-28)",
        "meta_object_id": "2011-016A",
        "meta_epoch": "2025-12-02T08:29:47.918112",
        "meta_mean_motion": 1.00271462,
        "meta_eccentricity": 0.0004007,
        "meta_inclination": 1.2953,
        "meta_ra_of_asc_node": 85.18,
        "meta_arg_of_pericenter": 171.1781,
        "meta_mean_anomaly": 270.8472,
        "meta_ephemeris_type": 0,
        "meta_classification_type": "U",
        "meta_norad_cat_id": 37392,
        "meta_element_set_no": 999,
        "meta_rev_at_epoch": 5131,
        "meta_bstar": 0,
        "meta_mean_motion_dot": -2.04e-06,
        "meta_mean_motion_ddot": 0,
        "tle_line1": "1 37392U 11016A   25336.35402683 -.00000204  00000+0  00000+0 0  9998",
        "tle_line2": "2 37392   1.2953  85.1800 0004007 171.1781 270.8472  1.00271462 51318"
      },
      "geometry": {
        "type": "Point",
        "coordinates": [
          -52.55976066147151,
          -0.8755668540587387
        ]
      }
    },
    {
      "type": "Feature",
      "properties": {
        "norad_id": 37834,
        "name": "INTELSAT 18 (IS-18)",
        "group": "intelsat",
        "lat": -0.01382311516131766,
        "lon": 159.08883308582486,
        "alt_km": 35786.77762212025,
        "timestamp": "2025-12-02T17:49:11.693508+00:00",
        "meta_object_name": "INTELSAT 18 (IS-18)",
        "meta_object_id": "2011-056A",
        "meta_epoch": "2025-12-02T11:35:38.855904",
        "meta_mean_motion": 1.00271002,
        "meta_eccentricity": 0.0002115,
        "meta_inclination": 0.0191,
        "meta_ra_of_asc_node": 325.0376,
        "meta_arg_of_pericenter": 287.2555,
        "meta_mean_anomaly": 173.206,
        "meta_ephemeris_type": 0,
        "meta_classification_type": "U",
        "meta_norad_cat_id": 37834,
        "meta_element_set_no": 999,
        "meta_rev_at_epoch": 5183,
        "meta_bstar": 0,
        "meta_mean_motion_dot": 7.3e-07,
        "meta_mean_motion_ddot": 0,
        "tle_line1": "1 37834U 11056A   25336.48308861  .00000073  00000+0  00000+0 0  9993",
        "tle_line2": "2 37834   0.0191 325.0376 0002115 287.2555 173.2060  1.00271002 51836"
      },
      "geometry": {
        "type": "Point",
        "coordinates": [
          159.08883308582486,
          -0.01382311516131766
        ]
      }
    },
    {
      "type": "Feature",
      "properties": {
        "norad_id": 38098,
        "name": "INTELSAT 22 (IS-22)",
        "group": "intelsat",
        "lat": 0.018467451664565177,
        "lon": 51.23215570196712,
        "alt_km": 35792.46903994844,
        "timestamp": "2025-12-02T17:49:11.693521+00:00",
        "meta_object_name": "INTELSAT 22 (IS-22)",
        "meta_object_id": "2012-011A",
        "meta_epoch": "2025-12-02T08:59:30.072768",
        "meta_mean_motion": 1.00271789,
        "meta_eccentricity": 0.0001724,
        "meta_inclination": 0.0023,
        "meta_ra_of_asc_node": 0.636,
        "meta_arg_of_pericenter": 259.5903,
        "meta_mean_anomaly": 18.2379,
        "meta_ephemeris_type": 0,
        "meta_classification_type": "U",
        "meta_norad_cat_id": 38098,
        "meta_element_set_no": 999,
        "meta_rev_at_epoch": 521,
        "meta_bstar": 0,
        "meta_mean_motion_dot": -3.8e-07,
        "meta_mean_motion_ddot": 0,
        "tle_line1": "1 38098U 12011A   25336.37465362 -.00000038  00000+0  00000+0 0  9998",
        "tle_line2": "2 38098   0.0023   0.6360 0001724 259.5903  18.2379  1.00271789  5210"
      },
      "geometry": {
        "type": "Point",
        "coordinates": [
          51.23215570196712,
          0.018467451664565177
        ]
      }
    },
    {
      "type": "Feature",
      "properties": {
        "norad_id": 38356,
        "name": "INTELSAT 19 (IS-19)",
        "group": "intelsat",
        "lat": -0.0056629300007144815,
        "lon": 145.0958738714607,
        "alt_km": 35791.55543537996,
        "timestamp": "2025-12-02T17:49:11.693533+00:00",
        "meta_object_name": "INTELSAT 19 (IS-19)",
        "meta_object_id": "2012-030A",
        "meta_epoch": "2025-12-02T11:51:38.549952",
        "meta_mean_motion": 1.00271622,
        "meta_eccentricity": 0.0003442,
        "meta_inclination": 0.0098,
        "meta_ra_of_asc_node": 317.9936,
        "meta_arg_of_pericenter": 299.0706,
        "meta_mean_anomaly": 158.4635,
        "meta_ephemeris_type": 0,
        "meta_classification_type": "U",
        "meta_norad_cat_id": 38356,
        "meta_element_set_no": 999,
        "meta_rev_at_epoch": 4847,
        "meta_bstar": 0,
        "meta_mean_motion_dot": -3.6e-07,
        "meta_mean_motion_ddot": 0,
        "tle_line1": "1 38356U 12030A   25336.49419618 -.00000036  00000+0  00000+0 0  9990",
        "tle_line2": "2 38356   0.0098 317.9936 0003442 299.0706 158.4635  1.00271622 48474"
      },
      "geometry": {
        "type": "Point",
        "coordinates": [
          145.0958738714607,
          -0.0056629300007144815
        ]
      }
    },
    {
      "type": "Feature",
      "properties": {
        "norad_id": 38740,
        "name": "INTELSAT 20 (IS-20)",
        "group": "intelsat",
        "lat": 0.0347874255992472,
        "lon": 47.56678687078072,
        "alt_km": 35797.34116401814,
        "timestamp": "2025-12-02T17:49:11.693545+00:00",
        "meta_object_name": "INTELSAT 20 (IS-20)",
        "meta_object_id": "2012-043A",
        "meta_epoch": "2025-12-02T00:24:39.918816",
        "meta_mean_motion": 1.00268447,
        "meta_eccentricity": 0.00030847,
        "meta_inclination": 0.0115,
        "meta_ra_of_asc_node": 324.2147,
        "meta_arg_of_pericenter": 225.9347,
        "meta_mean_anomaly": 315.6275,
        "meta_ephemeris_type": 0,
        "meta_classification_type": "U",
        "meta_norad_cat_id": 38740,
        "meta_element_set_no": 999,
        "meta_rev_at_epoch": 4877,
        "meta_bstar": 0,
        "meta_mean_motion_dot": 0,
        "meta_mean_motion_ddot": 0,
        "tle_line1": "1 38740U 12043A   25336.01712869  .00000000  00000+0  00000+0 0  9993",
        "tle_line2": "2 38740   0.0115 324.2147 0003084 225.9347 315.6275  1.00268447 48778"
      },
      "geometry": {
        "type": "Point",
        "coordinates": [
          47.56678687078072,
          0.0347874255992472
        ]
      }
    },
    {
      "type": "Feature",
      "properties": {
        "norad_id": 38749,
        "name": "INTELSAT 21 (IS-21)",
        "group": "intelsat",
        "lat": -0.02171675334376473,
        "lon": -78.86219782061573,
        "alt_km": 35778.89259646449,
        "timestamp": "2025-12-02T17:49:11.693557+00:00",
        "meta_object_name": "INTELSAT 21 (IS-21)",
        "meta_object_id": "2012-045A",
        "meta_epoch": "2025-12-02T08:22:18.633792",
        "meta_mean_motion": 1.00269456,
        "meta_eccentricity": 0.0002416,
        "meta_inclination": 0.0155,
        "meta_ra_of_asc_node": 315.7121,
        "meta_arg_of_pericenter": 285.7703,
        "meta_mean_anomaly": 257.5597,
        "meta_ephemeris_type": 0,
        "meta_classification_type": "U",
        "meta_norad_cat_id": 38749,
        "meta_element_set_no": 999,
        "meta_rev_at_epoch": 4855,
        "meta_bstar": 0,
        "meta_mean_motion_dot": -2.64e-06,
        "meta_mean_motion_ddot": 0,
        "tle_line1": "1 38749U 12045A   25336.34882678 -.00000264  00000+0  00000+0 0  9999",
        "tle_line2": "2 38749   0.0155 315.7121 0002416 285.7703 257.5597  1.00269456 48554"
      },
      "geometry": {
        "type": "Point",
        "coordinates": [
          -78.86219782061573,
          -0.02171675334376473
        ]
      }
    }
  ]
}